TIANMU-1 22             
1 58663U 23208D   24110.70606945  .00014044  00000+0  76694-3 0  9995
2 58663  97.4028 224.7098 0005968 209.3856 150.7041 15.14418122 17323
TIANMU-1 15             
1 58700U 24004A   24110.88034174  .00016149  00000+0  88236-3 0  9993
2 58700  97.4623 293.1005 0009150 249.2623 110.7629 15.14348492 15942
TIANMU-1 16             
1 58701U 24004B   24110.93047037  .00017153  00000+0  93712-3 0  9993
2 58701  97.4548 293.0832 0009094 257.5443 102.4772 15.14339610 15955
TIANMU-1 17             
1 58702U 24004C   24110.91463500  .00017763  00000+0  97090-3 0  9999
2 58702  97.4595 293.1655 0006549 249.9992 110.0535 15.14331685 15943
TIANMU-1 18             
1 58703U 24004D   24110.89928920  .00016446  00000+0  90075-3 0  9992
2 58703  97.4612 293.2069 0005880 238.2502 121.8157 15.14279650 15942
INSAT-3DS               
1 58990U 24033A   24110.86646708 -.00000166  00000+0  00000+0 0  9998
2 58990   0.1426  86.9494 0011478 359.4332 156.9862  1.00273028   387
METEOR-M2 4             
1 59051U 24039A   24110.88305320  .00000229  00000+0  12242-3 0  9991
2 59051  98.5927  74.2283 0006047 299.6997  60.3579 14.22213140  7205
2024-052A               
1 59280U 24052A   24110.87405856 -.00000039  00000+0  17586-3 0  9990
2 59280  50.0981 122.9461 0005810 304.2519  55.7805 13.32997075  3966
2024-052B               
1 59281U 24052B   24111.05727356 -.00000112  00000+0  23442-4 0  9995
2 59281  50.1568 121.2808 0005356 249.8203 191.2716 14.10904277  4007
2024-052C               
1 59282U 24052C   24110.86053731 -.00000025  00000+0  20407-3 0  9993
2 59282  50.0982 122.8813 0005595 333.6541  26.4049 13.33608232  3960
2024-052D               
1 59283U 24052D   24110.94154771  .00051139  00000+0  17539-2 0  9991
2 59283  50.0977  82.5093 0006719  30.9245 329.2109 15.29607062  4558
2024-052E               
1 59284U 24052E   24110.93439387  .00052547  00000+0  17799-2 0  9992
2 59284  50.1000  82.4639 0007949  38.0142 322.1377 15.29990677  4548
2024-052F               
1 59285U 24052F   24110.92755435  .00053431  00000+0  17889-2 0  9990
2 59285  50.0992  82.4175 0008891  44.7170 315.4505 15.30352920  4548
DRAGON CRS-30           
1 59287U 24054A   24110.49599618  .00029878  00000+0  52126-3 0  9997
2 59287  51.6373 246.4285 0004652  76.5244 283.6263 15.50438519449440
MOLA                    
1 59289U 24053B   24110.92425193  .00026305  00000+0  12961-2 0  9996
2 59289  49.9995 293.3585 0004977   5.9170 354.1841 15.17720104   367
AEROCUBE 16A            
1 59290U 24053C   24108.74523045  .00009965  00000+0  49914-3 0  9992
2 59290  50.0051 303.9327 0004106 339.3786  20.4629 15.17896746    35
AEROCUBE 16B            
1 59291U 24053D   24110.52264248  .00017743  00000+0  87378-3 0  9998
2 59291  50.0048 295.2558 0003974 344.7953  15.2879 15.17981720   383
SOYUZ-MS 25             
1 59294U 24055A   24110.49599618  .00029878  00000+0  52126-3 0  9996
2 59294  51.6373 246.4285 0004652  76.5244 283.6263 15.50438519449448
STARLINK-31463          
1 59296U 24056A   24110.91667824 -.01757514  00000+0 -32527-1 0  9990
2 59296  42.9996 203.2581 0001313 271.0424  28.5836 15.51538105  5338
STARLINK-31487          
1 59297U 24056B   24110.91667824 -.01756646  00000+0 -32515-1 0  9993
2 59297  42.9998 203.2484 0001568 273.6918  29.7844 15.51530574  5436
STARLINK-31386          
1 59298U 24056C   24110.91667824 -.01756648  00000+0 -32513-1 0  9994
2 59298  42.9997 203.2532 0001418 269.8082  31.7437 15.51533724  5030
STARLINK-31409          
1 59299U 24056D   24110.91667824 -.01756518  00000+0 -32517-1 0  9995
2 59299  42.9997 203.2433 0001558 274.9174  30.4842 15.51526713  5435
STARLINK-31489          
1 59300U 24056E   24110.91667824 -.01755871  00000+0 -32509-1 0  9990
2 59300  42.9998 203.2386 0001506 271.7000  35.6271 15.51522572  5333
STARLINK-31502          
1 59301U 24056F   24110.91667824 -.01759867  00000+0 -32593-1 0  9993
2 59301  42.9997 203.2338 0001552 273.5792  35.6720 15.51521393  5068
STARLINK-31447          
1 59302U 24056G   24110.91667824 -.01755712  00000+0 -32513-1 0  9991
2 59302  42.9997 203.2284 0001585 273.3572  37.8194 15.51515602  5334
STARLINK-31504          
1 59303U 24056H   24110.91667824 -.01756796  00000+0 -32540-1 0  9995
2 59303  42.9997 203.2238 0001502 277.9467  35.1546 15.51512619  5333
STARLINK-31474          
1 59304U 24056J   24110.91667824 -.01759933  00000+0 -32607-1 0  9996
2 59304  42.9998 203.2189 0001580 273.7672  41.2596 15.51510419  5179
STARLINK-31500          
1 59305U 24056K   24110.91667824 -.01755110  00000+0 -32515-1 0  9998
2 59305  42.9997 203.2139 0001499 274.8836  42.0686 15.51504082  5276
STARLINK-31480          
1 59306U 24056L   24110.91667824 -.01755520  00000+0 -32528-1 0  9998
2 59306  42.9997 203.2091 0001446 275.8121  43.0649 15.51500799  5174
STARLINK-31282          
1 59307U 24056M   24110.91667824 -.01754757  00000+0 -32516-1 0  9997
2 59307  42.9997 203.2043 0001526 273.7036  47.0985 15.51496748  5336
STARLINK-31485          
1 59308U 24056N   24110.91667824 -.01755964  00000+0 -32546-1 0  9992
2 59308  42.9997 203.1994 0001383 277.2448  45.4818 15.51493953  5330
STARLINK-31455          
1 59309U 24056P   24110.91667824 -.01755369  00000+0 -32536-1 0  9991
2 59309  42.9997 203.1943 0001589 277.1911  47.4609 15.51489973  5121
STARLINK-31475          
1 59310U 24056Q   24110.91667824 -.01754553  00000+0 -32525-1 0  9995
2 59310  42.9997 203.1895 0001512 274.6042  51.9734 15.51485624  5434
STARLINK-31469          
1 59311U 24056R   24110.91667824 -.01152591  00000+0 -88279-2 0  9998
2 59311  42.9996 202.5611 0001561 285.3391 295.3569 15.73966571  5432
STARLINK-31445          
1 59312U 24056S   24110.91667824 -.01760266  00000+0 -32649-1 0  9992
2 59312  42.9998 203.1799 0001459 273.1492  57.2772 15.51481886  5339
STARLINK-31495          
1 59313U 24056T   24110.91667824 -.01759860  00000+0 -32643-1 0  9995
2 59313  42.9998 203.1751 0001655 274.5214  57.8303 15.51477930  5334
STARLINK-31477          
1 59314U 24056U   24110.91667824 -.01754919  00000+0 -32550-1 0  9993
2 59314  42.9998 203.1702 0001435 277.2363  57.0404 15.51471592  5334
STARLINK-31446          
1 59315U 24056V   24110.91667824 -.01754276  00000+0 -32540-1 0  9999
2 59315  42.9998 203.1653 0001562 274.1960  62.0061 15.51467513  5333
STARLINK-31479          
1 59316U 24056W   24110.91667824 -.01759566  00000+0 -32652-1 0  9991
2 59316  42.9998 203.1606 0001475 276.0438  62.0825 15.51466852  5339
STARLINK-31349          
1 59317U 24056X   24110.91667824 -.01755391  00000+0 -32573-1 0  9996
2 59317  42.9997 203.1557 0001370 277.0961  62.9552 15.51461021  5384
STARLINK-31464          
1 59318U 24056Y   24110.91667824 -.01756566  00000+0 -32599-1 0  9990
2 59318  42.9998 203.1507 0001486 283.3273  58.6478 15.51458667  5331
STARLINK-31402          
1 59320U 24057A   24110.91667824 -.01671622  00000+0 -31689-1 0  9992
2 59320  43.0002 165.0757 0001656 268.9176  88.6219 15.50703560  5223
STARLINK-31578          
1 59321U 24057B   24110.91667824  .00038690  00000+0  68231-3 0  9997
2 59321  43.0003 165.2691 0001395 294.4141 343.5015 15.49727533  5164
STARLINK-31530          
1 59322U 24057C   24110.91667824  .00024698  00000+0  43830-3 0  9999
2 59322  43.0003 165.2646 0001278 274.9707   4.8573 15.49738808  5170
STARLINK-31565          
1 59323U 24057D   24110.91667824 -.00028718  00000+0 -49979-3 0  9999
2 59323  43.0003 165.2548 0001841 285.7498 357.9150 15.49763519  5164
STARLINK-31570          
1 59324U 24057E   24110.91667824  .00022884  00000+0  40671-3 0  9996
2 59324  43.0003 165.2592 0001978 300.8176 340.9409 15.49733110  5160
STARLINK-31611          
1 59325U 24057F   24110.91667824  .00050172  00000+0  88209-3 0  9997
2 59325  43.0003 165.2501 0001424 267.7467  17.8519 15.49716265  5176
STARLINK-31632          
1 59326U 24057G   24110.91667824  .00105727  00000+0  18427-2 0  9999
2 59326  43.0003 165.2446 0000801 276.3886  11.1787 15.49661445  5177
STARLINK-31599          
1 59327U 24057H   24110.91667824 -.02188972  00000+0 -50584-1 0  9996
2 59327  43.0004 165.2573 0001496 260.9333  21.3232 15.45477725  5177
STARLINK-31614          
1 59328U 24057J   24110.91667824  .00002572  00000+0  51077-4 0  9995
2 59328  43.0003 165.2351 0001738 289.3070   2.0356 15.49749393  5229
STARLINK-31493          
1 59329U 24057K   24110.91667824 -.02189255  00000+0 -45497-1 0  9990
2 59329  43.0002 165.2319 0001464 267.8033  24.7950 15.48505892  5223
STARLINK-31634          
1 59330U 24057L   24110.91667824  .00015163  00000+0  27178-3 0  9992
2 59330  43.0003 165.2256 0001439 263.7642  31.4324 15.49730475  5238
STARLINK-31633          
1 59331U 24057M   24110.91667824  .00008897  00000+0  16196-3 0  9997
2 59331  43.0003 165.2200 0001311 298.7525 358.3443 15.49747423  5239
STARLINK-31594          
1 59332U 24057N   24110.91667824  .00034686  00000+0  61259-3 0  9993
2 59332  43.0003 165.2151 0001296 289.0406   9.9847 15.49729212  5174
STARLINK-31572          
1 59333U 24057P   24110.91667824  .00033940  00000+0  59966-3 0  9998
2 59333  43.0001 165.2054 0001423 265.0010  37.8646 15.49725695  5170
STARLINK-31573          
1 59334U 24057Q   24110.91667824 -.00001299  00000+0 -16885-4 0  9997
2 59334  43.0002 165.2009 0001407 250.8033  53.9602 15.49743714  5174
STARLINK-31588          
1 59335U 24057R   24110.91667824  .00049394  00000+0  86842-3 0  9993
2 59335  43.0002 165.2104 0001513 285.2404  15.7055 15.49721586  5163
STARLINK-31596          
1 59336U 24057S   24110.91667824 -.02181646  00000+0 -46003-1 0  9998
2 59336  43.0002 165.1935 0001496 257.8658  49.6070 15.48081362  5221
